$$SOE
2461295.500000000, A.D. 2026-Sep-12 00:00:00.0000, -2.816701845394797E+08, 1.141818428741430E+08, -8.097099709004754E+07,
2461302.500000000, A.D. 2026-Sep-19 00:00:00.0000, -2.864301021175254E+08, 1.037660043614011E+08, -7.786519472385718E+07,
2461309.500000000, A.D. 2026-Sep-26 00:00:00.0000, -2.907428496319835E+08, 9.318824424271914E+07, -7.463780053887922E+07,
2461316.500000000, A.D. 2026-Oct-03 00:00:00.0000, -2.946010977952204E+08, 8.246488363667889E+07, -7.129370245208766E+07,
2461323.500000000, A.D. 2026-Oct-10 00:00:00.0000, -2.979980211191053E+08, 7.161246150228840E+07, -6.783793839473140E+07,
2461330.500000000, A.D. 2026-Oct-17 00:00:00.0000, -3.009273044734353E+08, 6.064773055453989E+07, -6.427569569967317E+07,
2461337.500000000, A.D. 2026-Oct-24 00:00:00.0000, -3.033831506145033E+08, 4.958765309179643E+07, -6.061231063488987E+07,
2461344.500000000, A.D. 2026-Oct-31 00:00:00.0000, -3.053602886146678E+08, 3.844939658109559E+07, -5.685326807004990E+07,
2461351.500000000, A.D. 2026-Nov-07 00:00:00.0000, -3.068539828800777E+08, 2.725032898536531E+07, -5.300420127190524E+07,
2461358.500000000, A.D. 2026-Nov-14 00:00:00.0000, -3.078600425775014E+08, 1.600801462622267E+07, -4.907089174301731E+07,
2461365.500000000, A.D. 2026-Nov-21 00:00:00.0000, -3.083748333001465E+08, 4.740211165167168E+06, -4.505926884892681E+07,
2461372.500000000, A.D. 2026-Nov-28 00:00:00.0000, -3.083952919897338E+08, -6.535135408781325E+06, -4.097540935505188E+07,
2461379.500000000, A.D. 2026-Dec-05 00:00:00.0000, -3.079189415127761E+08, -1.779989854455717E+07, -3.682553722386803E+07,
2461386.500000000, A.D. 2026-Dec-12 00:00:00.0000, -3.069439047282763E+08, -2.903577864140099E+07, -3.261602339133021E+07,
2461393.500000000, A.D. 2026-Dec-19 00:00:00.0000, -3.054689199249149E+08, -4.022431041899670E+07, -2.835338530382720E+07,
2461400.500000000, A.D. 2026-Dec-26 00:00:00.0000, -3.034933577639852E+08, -5.134687114029483E+07, -2.404428623031433E+07,
2461407.500000000, A.D. 2027-Jan-02 00:00:00.0000, -3.010172394446204E+08, -6.238469000530700E+07, -1.969553434540699E+07,
2461414.500000000, A.D. 2027-Jan-09 00:00:00.0000, -2.980412559558280E+08, -7.331885882612459E+07, -1.531408154235629E+07,
2461421.500000000, A.D. 2027-Jan-16 00:00:00.0000, -2.945667883509976E+08, -8.413034411187921E+07, -1.090702192430058E+07,
2461428.500000000, A.D. 2027-Jan-23 00:00:00.0000, -2.905959289617814E+08, -9.480000074682140E+07, -6.481589923716411E+06,
2461435.500000000, A.D. 2027-Jan-30 00:00:00.0000, -2.861315033171562E+08, -1.053085874551338E+08, -2.045158009337068E+06,
2461442.500000000, A.D. 2027-Feb-06 00:00:00.0000, -2.811770922809954E+08, -1.156367838560794E+08, 2.394766075535811E+06,
2461449.500000000, A.D. 2027-Feb-13 00:00:00.0000, -2.757370547800956E+08, -1.257652080303749E+08, 6.830542757119760E+06,
2461456.500000000, A.D. 2027-Feb-20 00:00:00.0000, -2.698165533660154E+08, -1.356744355361883E+08, 1.125440498237812E+07,
2461463.500000000, A.D. 2027-Feb-27 00:00:00.0000, -2.634215810768980E+08, -1.453450232565542E+08, 1.565846315665504E+07,
2461470.500000000, A.D. 2027-Mar-06 00:00:00.0000, -2.565589864445481E+08, -1.547575363383084E+08, 2.003471061874666E+07,
2461477.500000000, A.D. 2027-Mar-13 00:00:00.0000, -2.492364981055804E+08, -1.638925763479648E+08, 2.437503004511041E+07,
2461484.500000000, A.D. 2027-Mar-20 00:00:00.0000, -2.414627499789125E+08, -1.727308116370999E+08, 2.867120090288965E+07,
2461491.500000000, A.D. 2027-Mar-27 00:00:00.0000, -2.332473066047598E+08, -1.812530106163847E+08, 3.291490797571024E+07,
2461498.500000000, A.D. 2027-Apr-03 00:00:00.0000, -2.246006882090180E+08, -1.894400781334453E+08, 3.709775102887912E+07,
2461505.500000000, A.D. 2027-Apr-10 00:00:00.0000, -2.155343951694964E+08, -1.972730950698858E+08, 4.121125570092516E+07,
2461512.500000000, A.D. 2027-Apr-17 00:00:00.0000, -2.060609315675798E+08, -2.047333612967062E+08, 4.524688570872361E+07,
2461519.500000000, A.D. 2027-Apr-24 00:00:00.0000, -1.961938274204740E+08, -2.118024421589170E+08, 4.919605644262113E+07,
2461526.500000000, A.D. 2027-May-01 00:00:00.0000, -1.859476589386120E+08, -2.184622185480590E+08, 5.305015001190964E+07,
2461533.500000000, A.D. 2027-May-08 00:00:00.0000, -1.753380661134582E+08, -2.246949398712811E+08, 5.680053185278949E+07,
2461540.500000000, A.D. 2027-May-15 00:00:00.0000, -1.643817687099178E+08, -2.304832789853266E+08, 6.043856918196525E+07,
2461547.500000000, A.D. 2027-May-22 00:00:00.0000, -1.530965817673347E+08, -2.358103916744510E+08, 6.395565128105837E+07,
2461554.500000000, A.D. 2027-May-29 00:00:00.0000, -1.415014267620267E+08, -2.406599820978118E+08, 6.734321122581321E+07,
2461561.500000000, A.D. 2027-Jun-05 00:00:00.0000, -1.296163370309798E+08, -2.450163709942626E+08, 7.059274926814887E+07,
2461568.500000000, A.D. 2027-Jun-12 00:00:00.0000, -1.174624589278232E+08, -2.488645660813993E+08, 7.369585811423212E+07,
2461575.500000000, A.D. 2027-Jun-19 00:00:00.0000, -1.050620484905330E+08, -2.521903353903266E+08, 7.664425006250037E+07,
2461582.500000000, A.D. 2027-Jun-26 00:00:00.0000, -9.243846277810287E+07, -2.549802835329356E+08, 7.942978594317789E+07,
2461589.500000000, A.D. 2027-Jul-03 00:00:00.0000, -7.961614517252687E+07, -2.572219305559123E+08, 8.204450580984806E+07,
2461596.500000000, A.D. 2027-Jul-10 00:00:00.0000, -6.662060403957177E+07, -2.589037929608150E+08, 8.448066131503907E+07,
2461603.500000000, A.D. 2027-Jul-17 00:00:00.0000, -5.347838415591714E+07, -2.600154664359100E+08, 8.673074966719243E+07,
2461610.500000000, A.D. 2027-Jul-24 00:00:00.0000, -4.021703021314465E+07, -2.605477097836700E+08, 8.878754901746315E+07,
2461617.500000000, A.D. 2027-Jul-31 00:00:00.0000, -2.686504148866017E+07, -2.604925291443312E+08, 9.064415508775401E+07,
2461624.500000000, A.D. 2027-Aug-07 00:00:00.0000, -1.345181743578294E+07, -2.598432606153584E+08, 9.229401894366144E+07,
2461631.500000000, A.D. 2027-Aug-14 00:00:00.0000, -7.596111163227252E+03, -2.585946506873091E+08, 9.373098585283405E+07,
2461638.500000000, A.D. 2027-Aug-21 00:00:00.0000, 1.343661548225668E+07, -2.567429369486746E+08, 9.494933460621622E+07,
2461645.500000000, A.D. 2027-Aug-28 00:00:00.0000, 2.684912277408592E+07, -2.542859268779108E+08, 9.594381675863746E+07,
2461652.500000000, A.D. 2027-Sep-04 00:00:00.0000, 4.019763563513625E+07, -2.512230711808573E+08, 9.670969573819061E+07,
2461659.500000000, A.D. 2027-Sep-11 00:00:00.0000, 5.344936957829344E+07, -2.475555312426232E+08, 9.724278549733441E+07,
2461666.500000000, A.D. 2027-Sep-18 00:00:00.0000, 6.657115609781747E+07, -2.432862402162300E+08, 9.753948820572285E+07,
2461673.500000000, A.D. 2027-Sep-25 00:00:00.0000, 7.952956203056131E+07, -2.384199566817628E+08, 9.759683049450494E+07,
2461680.500000000, A.D. 2027-Oct-02 00:00:00.0000, 9.229101749974018E+07, -2.329633097092175E+08, 9.741249776118819E+07,
2461687.500000000, A.D. 2027-Oct-09 00:00:00.0000, 1.048219517753477E+08, -2.269248342177015E+08, 9.698486603001325E+07,
2461694.500000000, A.D. 2027-Oct-16 00:00:00.0000, 1.170889362514789E+08, -2.203149956282730E+08, 9.631303085104713E+07,
2461701.500000000, A.D. 2027-Oct-23 00:00:00.0000, 1.290588337619929E+08, -2.131462028429452E+08, 9.539683271757486E+07,
2461708.500000000, A.D. 2027-Oct-30 00:00:00.0000, 1.406989533968619E+08, -2.054328080794261E+08, 9.423687854055284E+07,
2461715.500000000, A.D. 2027-Nov-06 00:00:00.0000, 1.519772082801588E+08, -1.971910917115467E+08, 9.283455892803858E+07,
2461722.500000000, A.D. 2027-Nov-13 00:00:00.0000, 1.628622728037793E+08, -1.884392336300938E+08, 9.119206086552890E+07,
2461729.500000000, A.D. 2027-Nov-20 00:00:00.0000, 1.733237405791677E+08, -1.791972729326164E+08, 8.931237498465060E+07,
2461736.500000000, A.D. 2027-Nov-27 00:00:00.0000, 1.833322829933747E+08, -1.694870528125173E+08, 8.719929721083832E+07,
2461743.500000000, A.D. 2027-Dec-04 00:00:00.0000, 1.928598045492055E+08, -1.593321497954105E+08, 8.485742481546856E+07,
2461750.500000000, A.D. 2027-Dec-11 00:00:00.0000, 2.018795926134970E+08, -1.487577885761030E+08, 8.229214667998759E+07,
2461757.500000000, A.D. 2027-Dec-18 00:00:00.0000, 2.103664600408027E+08, -1.377907433105336E+08, 7.950962763855314E+07,
2461764.500000000, A.D. 2027-Dec-25 00:00:00.0000, 2.182968790802369E+08, -1.264592261078083E+08, 7.651678690702261E+07,
2461771.500000000, A.D. 2028-Jan-01 00:00:00.0000, 2.256491049637666E+08, -1.147927636825305E+08, 7.332127073075455E+07,
$$EOE